NORAD_CAT_ID,OBJECT_NAME,OBJECT_TYPE,EPOCH,MEAN_MOTION,ECCENTRICITY,INCLINATION,RA_OF_ASC_NODE,ARG_OF_PERICENTER,MEAN_ANOMALY,BSTAR,MEAN_MOTION_DOT,MEAN_MOTION_DDOT,TLE_LINE0,TLE_LINE1,TLE_LINE2,SEMIMAJOR_AXIS,PERIOD,APOGEE,PERIGEE,DECAYED
53800.0,STARLINK-4720,PAYLOAD,2024-06-03 14:44:23,15.08836328,0.0001322,53.2172,275.4341,92.794,267.3203,0.00011565,1.553e-05,0.0,0 STARLINK-4720,1 53800U 22111AD  24155.61416619  .00001553  00000-0  11565-3 0  9999,2 53800  53.2172 275.4341 0001322  92.7940 267.3203 15.08836328 96588,6917.892,95.438,540.671,538.842,0.0
53800.0,STARLINK-4720,PAYLOAD,2024-06-03 17:55:10,15.08840023,0.0001295,53.2177,274.84,90.6868,269.4272,5.2955e-05,5.55e-06,0.0,0 STARLINK-4720,1 53800U 22111AD  24155.74664582  .00000555  00000-0  52955-4 0  9997,2 53800  53.2177 274.8400 0001295  90.6868 269.4272 15.08840023 95795,6917.88,95.438,540.641,538.849,0.0
53800.0,STARLINK-4720,PAYLOAD,2024-06-04 11:24:24,15.08834952,0.0001266,53.2165,271.5687,87.2664,272.8473,9.926e-05,1.292e-05,0.0,0 STARLINK-4720,1 53800U 22111AD  24156.47528858  .00001292  00000-0  99260-4 0  9992,2 53800  53.2165 271.5687 0001266  87.2664 272.8473 15.08834952 96715,6917.896,95.438,540.637,538.885,0.0
53800.0,STARLINK-4720,PAYLOAD,2024-06-05 11:15:13,15.08818223,0.0001449,53.2156,267.1092,88.3989,271.7169,-0.0001042,-1.945e-05,0.0,0 STARLINK-4720,1 53800U 22111AD  24157.46890668 -.00001945  00000-0 -10420-3 0  9990,2 53800  53.2156 267.1092 0001449  88.3989 271.7169 15.08818223 96051,6917.947,95.439,540.814,538.81,0.0
53800.0,STARLINK-4720,PAYLOAD,2024-06-05 14:25:59,15.08823728,8.1e-05,53.2157,266.5133,84.4555,275.653,-4.7459e-05,-1.043e-05,0.0,0 STARLINK-4720,1 53800U 22111AD  24157.60138348 -.00001043  00000-0 -47459-4 0  9998,2 53800  53.2157 266.5133 0000810  84.4555 275.6530 15.08823728 96880,6917.93,95.439,540.355,539.235,0.0
53800.0,STARLINK-4720,PAYLOAD,2024-06-05 17:36:45,15.08825865,9.89e-05,53.2144,265.918,90.4917,269.6188,-2.8387e-05,-7.39e-06,0.0,0 STARLINK-4720,1 53800U 22111AD  24157.73386263 -.00000739  00000-0 -28387-4 0  9993,2 53800  53.2144 265.9180 0000989  90.4917 269.6188 15.08825865 96096,6917.924,95.438,540.473,539.104,0.0
53800.0,STARLINK-4720,PAYLOAD,2024-06-05 23:58:17,15.08840999,8.22e-05,53.2171,264.7295,88.603,271.5057,0.00010107,1.321e-05,0.0,0 STARLINK-4720,1 53800U 22111AD  24157.99880933  .00001321  00000-0  10107-3 0  9990,2 53800  53.2171 264.7295 0000822  88.6030 271.5057 15.08840999 96138,6917.877,95.437,540.311,539.174,0.0
53800.0,STARLINK-4720,PAYLOAD,2024-06-06 14:16:44,15.08856469,0.0001469,53.218,262.0505,109.5875,250.5275,0.00020292,2.944e-05,0.0,0 STARLINK-4720,1 53800U 22111AD  24158.59495927  .00002944  00000-0  20292-3 0  9990,2 53800  53.2180 262.0505 0001469 109.5875 250.5275 15.08856469 96229,6917.83,95.437,540.711,538.679,0.0
53800.0,STARLINK-4720,PAYLOAD,2024-06-07 23:39:51,15.0884826,7.02e-05,53.2161,255.8083,87.0181,273.0892,7.6704e-05,9.34e-06,0.0,0 STARLINK-4720,1 53800U 22111AD  24159.98600783  .00000934  00000-0  76704-4 0  9999,2 53800  53.2161 255.8083 0000702  87.0181 273.0892 15.08848260 96436,6917.855,95.437,540.206,539.235,0.0
53800.0,STARLINK-4720,PAYLOAD,2024-06-08 12:22:56,15.08841148,0.0001066,53.2147,253.4307,90.5837,269.5277,6.3768e-05,7.27e-06,0.0,0 STARLINK-4720,1 53800U 22111AD  24160.51593362  .00000727  00000-0  63768-4 0  9990,2 53800  53.2147 253.4307 0001066  90.5837 269.5277 15.08841148 97328,6917.877,95.437,540.479,539.004,0.0
53800.0,STARLINK-4720,PAYLOAD,2024-06-08 15:33:41,15.08856508,8.84e-05,53.2177,252.8356,81.6021,278.5072,9.6745e-05,1.253e-05,0.0,0 STARLINK-4720,1 53800U 22111AD  24160.64840239  .00001253  00000-0  96745-4 0  9998,2 53800  53.2177 252.8356 0000884  81.6021 278.5072 15.08856508 97342,6917.83,95.437,540.306,539.083,0.0
53800.0,STARLINK-4720,PAYLOAD,2024-06-09 12:13:46,15.08809309,0.0001392,53.2168,248.9691,97.506,262.6091,-0.00011785,-2.161e-05,0.0,0 STARLINK-4720,1 53800U 22111AD  24161.50956121 -.00002161  00000-0 -11785-3 0  9993,2 53800  53.2168 248.9691 0001392  97.5060 262.6091 15.08809309 96660,6917.974,95.439,540.802,538.876,0.0
53800.0,STARLINK-4720,PAYLOAD,2024-06-09 23:21:27,15.08828639,0.0001312,53.2181,246.8896,100.536,259.578,-6.0889e-05,-1.256e-05,0.0,0 STARLINK-4720,1 53800U 22111AD  24161.97323166 -.00001256  00000-0 -60889-4 0  9995,2 53800  53.2181 246.8896 0001312 100.5360 259.5780 15.08828639 96734,6917.915,95.438,540.688,538.872,0.0
53800.0,STARLINK-4720,PAYLOAD,2024-06-10 12:04:30,15.08853876,0.0001531,53.2178,244.5074,108.3205,251.7954,8.7632e-05,1.107e-05,0.0,0 STARLINK-4720,1 53800U 22111AD  24162.50313121  .00001107  00000-0  87632-4 0  9993,2 53800  53.2178 244.5074 0001531 108.3205 251.7954 15.08853876 96817,6917.838,95.437,540.762,538.644,0.0
53800.0,STARLINK-4720,PAYLOAD,2024-06-11 05:33:45,15.0883291,0.0001498,53.2171,241.2364,112.5246,247.5905,0.00032508,4.888e-05,0.0,0 STARLINK-4720,1 53800U 22111AD  24163.23177499  .00004888  00000-0  32508-3 0  9990,2 53800  53.2171 241.2364 0001498 112.5246 247.5905 15.08832910 96927,6917.902,95.438,540.803,538.731,0.0
53800.0,STARLINK-4720,PAYLOAD,2024-06-11 11:55:18,15.08829114,0.0001158,53.2173,240.0471,100.2871,259.8251,0.00028379,4.23e-05,0.0,0 STARLINK-4720,1 53800U 22111AD  24163.49674125  .00004230  00000-0  28379-3 0  9998,2 53800  53.2173 240.0471 0001158 100.2871 259.8251 15.08829114 97772,6917.914,95.438,540.58,538.978,0.0
53800.0,STARLINK-4720,PAYLOAD,2024-06-12 05:24:32,15.0884635,0.0001165,53.2169,236.7773,98.6908,261.4217,-2.1119e-05,-6.24e-06,0.0,0 STARLINK-4720,1 53800U 22111AD  24164.22537976 -.00000624  00000-0 -21119-4 0  9993,2 53800  53.2169 236.7773 0001165  98.6908 261.4217 15.08846350 97887,6917.861,95.437,540.532,538.92,0.0
53800.0,STARLINK-4720,PAYLOAD,2024-06-12 11:46:05,15.08838925,0.0001141,53.2173,235.5889,105.1084,255.0034,-8.7763e-05,-1.684e-05,0.0,0 STARLINK-4720,1 53800U 22111AD  24164.49034594 -.00001684  00000-0 -87763-4 0  9994,2 53800  53.2173 235.5889 0001141 105.1084 255.0034 15.08838925 97111,6917.884,95.438,540.538,538.959,0.0
53800.0,STARLINK-4720,PAYLOAD,2024-06-13 11:36:52,15.08840755,0.0001067,53.2169,231.1295,99.3646,260.7467,6.584e-05,7.6e-06,0.0,0 STARLINK-4720,1 53800U 22111AD  24165.48393877  .00000760  00000-0  65840-4 0  9990,2 53800  53.2169 231.1295 0001067  99.3646 260.7467 15.08840755 97267,6917.878,95.438,540.481,539.005,0.0
53800.0,STARLINK-4720,PAYLOAD,2024-06-14 13:03:02,15.08833707,0.0001115,53.2169,226.3721,90.0659,270.0461,7.7223e-05,9.41e-06,0.0,0 STARLINK-4720,1 53800U 22111AD  24166.54378428  .00000941  00000-0  77223-4 0  9992,2 53800  53.2169 226.3721 0001115  90.0659 270.0461 15.08833707 98238,6917.9,95.438,540.536,538.993,0.0
53800.0,STARLINK-4720,PAYLOAD,2024-06-14 20:59:58,15.08840823,0.0001104,53.2169,224.8853,88.6468,271.4651,8.5708e-05,1.077e-05,0.0,0 STARLINK-4720,1 53800U 22111AD  24166.87497995  .00001077  00000-0  85708-4 0  9997,2 53800  53.2169 224.8853 0001104  88.6468 271.4651 15.08840823 98284,6917.878,95.438,540.507,538.979,0.0
53800.0,STARLINK-4720,PAYLOAD,2024-06-15 12:53:49,15.08847337,0.0001181,53.2171,221.91,80.6708,279.4418,5.7268e-05,6.24e-06,0.0,0 STARLINK-4720,1 53800U 22111AD  24167.53737686  .00000624  00000-0  57268-4 0  9992,2 53800  53.2171 221.9100 0001181  80.6708 279.4418 15.08847337 98381,6917.858,95.437,540.54,538.906,0.0
53800.0,STARLINK-4720,PAYLOAD,2024-06-15 20:50:44,15.08853701,0.0001207,53.2173,220.4233,82.1138,277.9991,4.5474e-05,4.36e-06,0.0,0 STARLINK-4720,1 53800U 22111AD  24167.86857130  .00000436  00000-0  45474-4 0  9992,2 53800  53.2173 220.4233 0001207  82.1138 277.9991 15.08853701 98434,6917.839,95.437,540.538,538.869,0.0
53800.0,STARLINK-4720,PAYLOAD,2024-06-16 11:09:13,15.08839752,0.0001217,53.2167,217.7479,83.5954,276.5177,6.408e-05,7.32e-06,0.0,0 STARLINK-4720,1 53800U 22111AD  24168.46473973  .00000732  00000-0  64080-4 0  9991,2 53800  53.2167 217.7479 0001217  83.5954 276.5177 15.08839752 98521,6917.881,95.438,540.588,538.904,0.0
53800.0,STARLINK-4720,PAYLOAD,2024-06-16 20:41:31,15.08844616,0.0001233,53.2167,215.9631,80.3098,279.8033,7.7541e-05,9.47e-06,0.0,0 STARLINK-4720,1 53800U 22111AD  24168.86217566  .00000947  00000-0  77541-4 0  9993,2 53800  53.2167 215.9631 0001233  80.3098 279.8033 15.08844616 98581,6917.866,95.437,540.584,538.878,0.0
53800.0,STARLINK-4720,PAYLOAD,2024-06-17 20:32:19,15.0883924,0.0001329,53.2172,211.5,96.2285,263.8858,-2.2268e-05,-6.42e-06,0.0,0 STARLINK-4720,1 53800U 22111AD  24169.85578160 -.00000642  00000-0 -22268-4 0  9993,2 53800  53.2172 211.5000 0001329  96.2285 263.8858 15.08839240 97921,6917.883,95.438,540.667,538.828,0.0
53800.0,STARLINK-4720,PAYLOAD,2024-06-18 09:15:24,15.08840777,0.0001375,53.2171,209.1216,97.6466,262.4683,3.9182e-05,3.36e-06,0.0,0 STARLINK-4720,1 53800U 22111AD  24170.38569887  .00000336  00000-0  39182-4 0  9990,2 53800  53.2171 209.1216 0001375  97.6466 262.4683 15.08840777 98816,6917.878,95.438,540.694,538.792,0.0
53800.0,STARLINK-4720,PAYLOAD,2024-06-19 09:06:12,15.08829741,0.0001239,53.216,204.6622,90.9404,269.173,3.7081e-05,3.02e-06,0.0,0 STARLINK-4720,1 53800U 22111AD  24171.37930802  .00000302  00000-0  37081-4 0  9998,2 53800  53.2160 204.6622 0001239  90.9404 269.1730 15.08829741 98154,6917.912,95.438,540.634,538.92,0.0
53800.0,STARLINK-4720,PAYLOAD,2024-06-20 12:07:45,15.08838585,0.0001234,53.2161,199.6075,90.3576,269.7558,4.9329e-05,4.97e-06,0.0,0 STARLINK-4720,1 53800U 22111AD  24172.50538569  .00000497  00000-0  49329-4 0  9991,2 53800  53.2161 199.6075 0001234  90.3576 269.7558 15.08838585 99138,6917.885,95.438,540.603,538.896,0.0
53800.0,STARLINK-4720,PAYLOAD,2024-06-20 18:29:17,15.08839793,0.0001229,53.2163,198.4182,90.199,269.9143,7.3192e-05,8.77e-06,0.0,0 STARLINK-4720,1 53800U 22111AD  24172.77034432  .00000877  00000-0  73192-4 0  9997,2 53800  53.2163 198.4182 0001229  90.1990 269.9143 15.08839793 98366,6917.881,95.438,540.596,538.896,0.0
